STARLINK-5024           
1 53901U 22119R   25326.50003471  .00035560  00000+0  32085-3 0  9990
2 53901  53.2155  57.7184 0005966 344.0029  31.2442 15.67814267  5986
STARLINK-5021           
1 53902U 22119S   25326.40804821 -.00001356  00000+0 -67174-4 0  9994
2 53902  53.2185  35.4796 0000925 110.4710 249.6381 15.08830994176193
STARLINK-5022           
1 53903U 22119T   25326.35655512  .00000892  00000+0  74140-4 0  9993
2 53903  53.2166  85.7598 0001358 101.3596 258.7549 15.08840018175489
STARLINK-4787           
1 53904U 22119U   25326.33718296  .00000290  00000+0  36293-4 0  9990
2 53904  53.2160  85.6454 0001250  84.7929 275.3205 15.08841173175486
STARLINK-5003           
1 53905U 22119V   25326.32713102 -.00000084  00000+0  12836-4 0  9990
2 53905  53.2166  76.3093 0001168  92.0272 268.0854 15.08838177175614
STARLINK-5054           
1 53906U 22119W   25326.27923946 -.00002598  00000+0 -14523-3 0  9991
2 53906  53.2166  76.0169 0000981  77.3800 282.7302 15.08835263175615
STARLINK-5057           
1 53908U 22119Y   25326.31976698 -.00000658  00000+0 -23273-4 0  9998
2 53908  53.2170  76.2659 0001241  80.7735 279.3398 15.08837481175614
STARLINK-4796           
1 53909U 22119Z   25326.33082433 -.00002016  00000+0 -10857-3 0  9999
2 53909  53.2151  76.3294 0001273 100.5621 259.5514 15.08843549175612
STARLINK-5056           
1 53910U 22119AA  25326.50003471  .00263868  00000+0  10225-2 0  9995
2 53910  53.2126 344.0263 0004946  56.3223 315.9057 15.85953764  6015
STARLINK-5048           
1 53911U 22119AB  25325.59480472  .00001763  00000+0  12880-3 0  9998
2 53911  53.2159  79.5578 0001274  85.7501 274.3637 15.08840476175500
STARLINK-5059           
1 53912U 22119AC  25326.33810970 -.00000455  00000+0 -10490-4 0  9997
2 53912  53.2175  75.6768 0001190 101.6296 258.4829 15.08835301175623
STARLINK-5053           
1 53913U 22119AD  25326.30503199 -.00000051  00000+0  14911-4 0  9990
2 53913  53.2176  76.1740 0001233  82.6904 277.4228 15.08838801175614
STARLINK-5040           
1 53914U 22119AE  25326.30134818  .00000222  00000+0  32042-4 0  9993
2 53914  53.2183  76.1568 0001532  76.2763 283.8400 15.08838221175614
STARLINK-5017           
1 53915U 22119AF  25325.58744127 -.00000229  00000+0  36892-5 0  9999
2 53915  53.2171  79.5121 0001232  84.5768 275.5365 15.08842387175502
STARLINK-5051           
1 53916U 22119AG  25326.46507519 -.00000838  00000+0 -34577-4 0  9994
2 53916  53.2179  55.1240 0001232  97.8122 262.3010 15.08832500175938
STARLINK-5036           
1 53917U 22119AH  25325.64630925  .00001784  00000+0  13010-3 0  9999
2 53917  53.2177  79.1702 0001278  86.8008 273.3130 15.08849426175511
STARLINK-5012           
1 53918U 22119AJ  25325.63526549  .00002474  00000+0  17343-3 0  9995
2 53918  53.2178  79.1029 0000893  85.4928 274.6166 15.08841195175511
