[{"OBJECT_NAME":"STARLINK-5024","OBJECT_ID":"2022-119R","EPOCH":"2025-11-22T12:00:02.998944","MEAN_MOTION":15.67814267,"ECCENTRICITY":0.0005966,"INCLINATION":53.2155,"RA_OF_ASC_NODE":57.7184,"ARG_OF_PERICENTER":344.0029,"MEAN_ANOMALY":31.2442,"EPHEMERIS_TYPE":0,"CLASSIFICATION_TYPE":"U","NORAD_CAT_ID":53901,"ELEMENT_SET_NO":999,"REV_AT_EPOCH":598,"BSTAR":0.00032085,"MEAN_MOTION_DOT":0.0003556,"MEAN_MOTION_DDOT":0},{"OBJECT_NAME":"STARLINK-5021","OBJECT_ID":"2022-119S","EPOCH":"2025-11-22T09:47:35.365344","MEAN_MOTION":15.08830994,"ECCENTRICITY":9.25e-5,"INCLINATION":53.2185,"RA_OF_ASC_NODE":35.4796,"ARG_OF_PERICENTER":110.471,"MEAN_ANOMALY":249.6381,"EPHEMERIS_TYPE":0,"CLASSIFICATION_TYPE":"U","NORAD_CAT_ID":53902,"ELEMENT_SET_NO":999,"REV_AT_EPOCH":17619,"BSTAR":-6.7174e-5,"MEAN_MOTION_DOT":-1.356e-5,"MEAN_MOTION_DDOT":0},{"OBJECT_NAME":"STARLINK-5022","OBJECT_ID":"2022-119T","EPOCH":"2025-11-22T08:33:26.362368","MEAN_MOTION":15.08840018,"ECCENTRICITY":0.0001358,"INCLINATION":53.2166,"RA_OF_ASC_NODE":85.7598,"ARG_OF_PERICENTER":101.3596,"MEAN_ANOMALY":258.7549,"EPHEMERIS_TYPE":0,"CLASSIFICATION_TYPE":"U","NORAD_CAT_ID":53903,"ELEMENT_SET_NO":999,"REV_AT_EPOCH":17548,"BSTAR":7.414e-5,"MEAN_MOTION_DOT":8.92e-6,"MEAN_MOTION_DDOT":0},{"OBJECT_NAME":"STARLINK-4787","OBJECT_ID":"2022-119U","EPOCH":"2025-11-22T08:05:32.607744","MEAN_MOTION":15.08841173,"ECCENTRICITY":0.000125,"INCLINATION":53.216,"RA_OF_ASC_NODE":85.6454,"ARG_OF_PERICENTER":84.7929,"MEAN_ANOMALY":275.3205,"EPHEMERIS_TYPE":0,"CLASSIFICATION_TYPE":"U","NORAD_CAT_ID":53904,"ELEMENT_SET_NO":999,"REV_AT_EPOCH":17548,"BSTAR":3.6293e-5,"MEAN_MOTION_DOT":2.9e-6,"MEAN_MOTION_DDOT":0},{"OBJECT_NAME":"STARLINK-5003","OBJECT_ID":"2022-119V","EPOCH":"2025-11-22T07:51:04.120128","MEAN_MOTION":15.08838177,"ECCENTRICITY":0.0001168,"INCLINATION":53.2166,"RA_OF_ASC_NODE":76.3093,"ARG_OF_PERICENTER":92.0272,"MEAN_ANOMALY":268.0854,"EPHEMERIS_TYPE":0,"CLASSIFICATION_TYPE":"U","NORAD_CAT_ID":53905,"ELEMENT_SET_NO":999,"REV_AT_EPOCH":17561,"BSTAR":1.2836e-5,"MEAN_MOTION_DOT":-8.4e-7,"MEAN_MOTION_DDOT":0},{"OBJECT_NAME":"STARLINK-5054","OBJECT_ID":"2022-119W","EPOCH":"2025-11-22T06:42:06.289344","MEAN_MOTION":15.08835263,"ECCENTRICITY":9.81e-5,"INCLINATION":53.2166,"RA_OF_ASC_NODE":76.0169,"ARG_OF_PERICENTER":77.38,"MEAN_ANOMALY":282.7302,"EPHEMERIS_TYPE":0,"CLASSIFICATION_TYPE":"U","NORAD_CAT_ID":53906,"ELEMENT_SET_NO":999,"REV_AT_EPOCH":17561,"BSTAR":-0.00014523,"MEAN_MOTION_DOT":-2.598e-5,"MEAN_MOTION_DDOT":0},{"OBJECT_NAME":"STARLINK-5057","OBJECT_ID":"2022-119Y","EPOCH":"2025-11-22T07:40:27.867072","MEAN_MOTION":15.08837481,"ECCENTRICITY":0.0001241,"INCLINATION":53.217,"RA_OF_ASC_NODE":76.2659,"ARG_OF_PERICENTER":80.7735,"MEAN_ANOMALY":279.3398,"EPHEMERIS_TYPE":0,"CLASSIFICATION_TYPE":"U","NORAD_CAT_ID":53908,"ELEMENT_SET_NO":999,"REV_AT_EPOCH":17561,"BSTAR":-2.3273e-5,"MEAN_MOTION_DOT":-6.58e-6,"MEAN_MOTION_DDOT":0},{"OBJECT_NAME":"STARLINK-4796","OBJECT_ID":"2022-119Z","EPOCH":"2025-11-22T07:56:23.222112","MEAN_MOTION":15.08843549,"ECCENTRICITY":0.0001273,"INCLINATION":53.2151,"RA_OF_ASC_NODE":76.3294,"ARG_OF_PERICENTER":100.5621,"MEAN_ANOMALY":259.5514,"EPHEMERIS_TYPE":0,"CLASSIFICATION_TYPE":"U","NORAD_CAT_ID":53909,"ELEMENT_SET_NO":999,"REV_AT_EPOCH":17561,"BSTAR":-0.00010857,"MEAN_MOTION_DOT":-2.016e-5,"MEAN_MOTION_DDOT":0},{"OBJECT_NAME":"STARLINK-5056","OBJECT_ID":"2022-119AA","EPOCH":"2025-11-22T12:00:02.998944","MEAN_MOTION":15.85953764,"ECCENTRICITY":0.0004946,"INCLINATION":53.2126,"RA_OF_ASC_NODE":344.0263,"ARG_OF_PERICENTER":56.3223,"MEAN_ANOMALY":315.9057,"EPHEMERIS_TYPE":0,"CLASSIFICATION_TYPE":"U","NORAD_CAT_ID":53910,"ELEMENT_SET_NO":999,"REV_AT_EPOCH":601,"BSTAR":0.0010225,"MEAN_MOTION_DOT":0.00263868,"MEAN_MOTION_DDOT":0},{"OBJECT_NAME":"STARLINK-5048","OBJECT_ID":"2022-119AB","EPOCH":"2025-11-21T14:16:31.127808","MEAN_MOTION":15.08840476,"ECCENTRICITY":0.0001274,"INCLINATION":53.2159,"RA_OF_ASC_NODE":79.5578,"ARG_OF_PERICENTER":85.7501,"MEAN_ANOMALY":274.3637,"EPHEMERIS_TYPE":0,"CLASSIFICATION_TYPE":"U","NORAD_CAT_ID":53911,"ELEMENT_SET_NO":999,"REV_AT_EPOCH":17550,"BSTAR":0.0001288,"MEAN_MOTION_DOT":1.763e-5,"MEAN_MOTION_DDOT":0},{"OBJECT_NAME":"STARLINK-5059","OBJECT_ID":"2022-119AC","EPOCH":"2025-11-22T08:06:52.678080","MEAN_MOTION":15.08835301,"ECCENTRICITY":0.000119,"INCLINATION":53.2175,"RA_OF_ASC_NODE":75.6768,"ARG_OF_PERICENTER":101.6296,"MEAN_ANOMALY":258.4829,"EPHEMERIS_TYPE":0,"CLASSIFICATION_TYPE":"U","NORAD_CAT_ID":53912,"ELEMENT_SET_NO":999,"REV_AT_EPOCH":17562,"BSTAR":-1.049e-5,"MEAN_MOTION_DOT":-4.55e-6,"MEAN_MOTION_DDOT":0},{"OBJECT_NAME":"STARLINK-5053","OBJECT_ID":"2022-119AD","EPOCH":"2025-11-22T07:19:14.763936","MEAN_MOTION":15.08838801,"ECCENTRICITY":0.0001233,"INCLINATION":53.2176,"RA_OF_ASC_NODE":76.174,"ARG_OF_PERICENTER":82.6904,"MEAN_ANOMALY":277.4228,"EPHEMERIS_TYPE":0,"CLASSIFICATION_TYPE":"U","NORAD_CAT_ID":53913,"ELEMENT_SET_NO":999,"REV_AT_EPOCH":17561,"BSTAR":1.4911e-5,"MEAN_MOTION_DOT":-5.1e-7,"MEAN_MOTION_DDOT":0},{"OBJECT_NAME":"STARLINK-5040","OBJECT_ID":"2022-119AE","EPOCH":"2025-11-22T07:13:56.482752","MEAN_MOTION":15.08838221,"ECCENTRICITY":0.0001532,"INCLINATION":53.2183,"RA_OF_ASC_NODE":76.1568,"ARG_OF_PERICENTER":76.2763,"MEAN_ANOMALY":283.84,"EPHEMERIS_TYPE":0,"CLASSIFICATION_TYPE":"U","NORAD_CAT_ID":53914,"ELEMENT_SET_NO":999,"REV_AT_EPOCH":17561,"BSTAR":3.2042e-5,"MEAN_MOTION_DOT":2.22e-6,"MEAN_MOTION_DDOT":0},{"OBJECT_NAME":"STARLINK-5017","OBJECT_ID":"2022-119AF","EPOCH":"2025-11-21T14:05:54.925728","MEAN_MOTION":15.08842387,"ECCENTRICITY":0.0001232,"INCLINATION":53.2171,"RA_OF_ASC_NODE":79.5121,"ARG_OF_PERICENTER":84.5768,"MEAN_ANOMALY":275.5365,"EPHEMERIS_TYPE":0,"CLASSIFICATION_TYPE":"U","NORAD_CAT_ID":53915,"ELEMENT_SET_NO":999,"REV_AT_EPOCH":17550,"BSTAR":3.6892e-6,"MEAN_MOTION_DOT":-2.29e-6,"MEAN_MOTION_DDOT":0},{"OBJECT_NAME":"STARLINK-5051","OBJECT_ID":"2022-119AG","EPOCH":"2025-11-22T11:09:42.496416","MEAN_MOTION":15.088325,"ECCENTRICITY":0.0001232,"INCLINATION":53.2179,"RA_OF_ASC_NODE":55.124,"ARG_OF_PERICENTER":97.8122,"MEAN_ANOMALY":262.301,"EPHEMERIS_TYPE":0,"CLASSIFICATION_TYPE":"U","NORAD_CAT_ID":53916,"ELEMENT_SET_NO":999,"REV_AT_EPOCH":17593,"BSTAR":-3.4577e-5,"MEAN_MOTION_DOT":-8.38e-6,"MEAN_MOTION_DDOT":0},{"OBJECT_NAME":"STARLINK-5036","OBJECT_ID":"2022-119AH","EPOCH":"2025-11-21T15:30:41.119200","MEAN_MOTION":15.08849426,"ECCENTRICITY":0.0001278,"INCLINATION":53.2177,"RA_OF_ASC_NODE":79.1702,"ARG_OF_PERICENTER":86.8008,"MEAN_ANOMALY":273.313,"EPHEMERIS_TYPE":0,"CLASSIFICATION_TYPE":"U","NORAD_CAT_ID":53917,"ELEMENT_SET_NO":999,"REV_AT_EPOCH":17551,"BSTAR":0.0001301,"MEAN_MOTION_DOT":1.784e-5,"MEAN_MOTION_DDOT":0},{"OBJECT_NAME":"STARLINK-5012","OBJECT_ID":"2022-119AJ","EPOCH":"2025-11-21T15:14:46.938336","MEAN_MOTION":15.08841195,"ECCENTRICITY":8.93e-5,"INCLINATION":53.2178,"RA_OF_ASC_NODE":79.1029,"ARG_OF_PERICENTER":85.4928,"MEAN_ANOMALY":274.6166,"EPHEMERIS_TYPE":0,"CLASSIFICATION_TYPE":"U","NORAD_CAT_ID":53918,"ELEMENT_SET_NO":999,"REV_AT_EPOCH":17551,"BSTAR":0.00017343,"MEAN_MOTION_DOT":2.474e-5,"MEAN_MOTION_DDOT":0}]
